STARLINK-1408
1 25688C 20035AH  21325.10625707  .00006886  00000-0  46137-3 0  3257
2 25688  53.0529 262.7509 0002121  58.9693  13.8455 15.06392075    19
